[{"OBJECT_NAME":"STARLINK-5979","OBJECT_ID":"2023-058AE","EPOCH":"2026-03-09T21:37:34.278816","MEAN_MOTION":15.01261582,"ECCENTRICITY":0.00028491,"INCLINATION":97.6037,"RA_OF_ASC_NODE":70.4284,"ARG_OF_PERICENTER":135.1662,"MEAN_ANOMALY":224.9793,"EPHEMERIS_TYPE":0,"CLASSIFICATION_TYPE":"U","NORAD_CAT_ID":56345,"ELEMENT_SET_NO":999,"REV_AT_EPOCH":15816,"BSTAR":1.3419342e-5,"MEAN_MOTION_DOT":1.14e-6,"MEAN_MOTION_DDOT":0},{"OBJECT_NAME":"IRIDIUM 33 DEB","OBJECT_ID":"1997-051ACD","EPOCH":"2026-02-15T04:06:14.442336","MEAN_MOTION":15.0282309,"ECCENTRICITY":0.00183243,"INCLINATION":86.3384,"RA_OF_ASC_NODE":302.6959,"ARG_OF_PERICENTER":121.5358,"MEAN_ANOMALY":29.3036,"EPHEMERIS_TYPE":0,"CLASSIFICATION_TYPE":"U","NORAD_CAT_ID":46971,"ELEMENT_SET_NO":999,"REV_AT_EPOCH":65196,"BSTAR":0.0024316654,"MEAN_MOTION_DOT":0.00032805,"MEAN_MOTION_DDOT":0}]
